OBJECT_NAME,OBJECT_ID,EPOCH,MEAN_MOTION,ECCENTRICITY,INCLINATION,RA_OF_ASC_NODE,ARG_OF_PERICENTER,MEAN_ANOMALY,EPHEMERIS_TYPE,CLASSIFICATION_TYPE,NORAD_CAT_ID,ELEMENT_SET_NO,REV_AT_EPOCH,BSTAR,MEAN_MOTION_DOT,MEAN_MOTION_DDOT
OSCAR 7 (AO-7),1974-089B,2026-07-18T08:00:02.170944,12.53698607,.00126466,101.9906,212.9046,72.5596,301.3318,0,U,7530,999,36442,-.23408694E-4,-.5E-6,0
PHASE 3B (AO-10),1983-058B,2026-07-13T02:29:46.528800,2.05872336,.60022234,25.9345,215.2934,122.7887,309.2966,0,U,14129,999,29602,0,-.187E-5,0
UOSAT 2 (UO-11),1984-021B,2026-07-17T21:28:09.342912,14.90852514,.00092508,97.8078,164.1312,83.9796,276.2476,0,U,14781,999,26170,.59556283E-4,.531E-5,0
LUSAT (LO-19),1990-005G,2026-07-18T07:10:09.217056,14.34131248,.00126129,98.8847,221.9606,113.0543,247.1972,0,U,20442,999,90685,.25338765E-4,.24E-6,0
EYESAT A (AO-27),1993-061C,2026-07-18T04:27:34.256160,14.30949549,.00085926,98.6865,266.5857,17.4944,342.6533,0,U,22825,999,71143,.2784665E-4,.29E-6,0
ITAMSAT (IO-26),1993-061D,2026-07-18T03:44:35.977344,14.31377218,.00087478,98.6813,266.4764,0.7284,359.3910,0,U,22826,999,71174,.29941278E-4,.35E-6,0
RADIO ROSTO (RS15),1994-085A,2026-07-18T03:46:18.737184,11.27583518,.01570326,64.8146,253.1302,358.1649,1.8681,0,U,23439,999,29939,.11801375E-3,-.38E-6,0
JAS-2 (FO-29),1996-046B,2026-07-18T03:23:09.023424,13.53275822,.03502219,98.5218,43.7700,16.3074,344.9004,0,U,24278,999,47735,.4464E-5,-.31E-6,0
TECHSAT 1B (GO-32),1998-043D,2026-07-17T23:18:35.793504,14.24433657,.00022668,99.0087,192.5089,110.8541,249.2880,0,U,25397,999,45571,.2148049E-4,.3E-7,0
ISS (ZARYA),1998-067A,2026-07-18T02:08:01.938048,15.49037991,.00067939,51.6318,147.1664,308.8910,51.1472,0,U,25544,999,57654,.76428863E-4,.3768E-4,0
PCSAT (NO-44),2001-043C,2026-07-18T04:05:36.058272,14.31965620,.00058816,67.0497,164.1338,266.7892,93.2537,0,U,26931,999,29488,.39648002E-4,.23E-6,0
SAUDISAT 1C (SO-50),2002-058C,2026-07-17T23:18:35.552448,14.83101410,.00744416,64.5519,33.7353,256.7655,102.5140,0,U,27607,999,26902,.61896608E-4,.371E-5,0
CUTE-1 (CO-55),2003-031E,2026-07-18T07:08:10.116384,14.24352673,.00108679,98.6744,207.4657,94.6885,265.5536,0,U,27844,999,19610,.74435316E-4,.128E-5,0
CUBESAT XI-IV (CO-57),2003-031J,2026-07-17T22:48:02.109024,14.23635431,.00106323,98.6776,206.8106,112.1739,248.0569,0,U,27848,999,19575,.66203101E-4,.107E-5,0
MOZHAETS 4 (RS22),2003-042A,2026-07-18T07:48:23.152608,14.73517394,.00114745,98.3473,24.5650,163.3826,321.2806,0,U,27939,999,22013,.76442905E-4,.443E-5,0
CUBESAT XI-V,2005-043F,2026-07-16T23:00:13.929984,14.72704810,.0015312,98.3017,354.2118,110.0551,250.2305,0,U,28895,999,10613,.10709E-3,.631E-5,0
CUTE-1.7+APD II (CO-65),2008-021C,2026-07-18T04:53:08.831616,15.09715838,.00068393,97.8299,181.2770,287.0657,72.9822,0,U,32785,999,98987,.1304799E-3,.2036E-4,0
SEEDS II (CO-66),2008-021J,2026-07-18T06:22:13.792224,15.33729458,.000342,97.7531,198.6727,150.0473,210.0965,0,U,32791,999,99205,.30653814E-3,.9917E-4,0
YUBILEINY (RS30),2008-025A,2026-07-18T07:46:29.947008,12.43180656,.0018692,82.5068,336.0703,241.7403,118.1791,0,U,32953,999,82356,-.48976833E-4,.3E-7,0
KKS-1 (KISEKI),2009-002H,2026-07-18T05:20:50.785728,14.83193133,.00076752,98.1172,122.1568,178.9108,181.2124,0,U,33499,999,94079,.79242427E-4,.591E-5,0
SWISSCUBE,2009-051B,2026-07-17T16:22:26.527872,14.62533257,.00079463,98.4004,107.0987,112.4041,247.8002,0,U,35932,999,89361,.95101173E-4,.433E-5,0
BEESAT-1,2009-051C,2026-07-17T16:59:00.359520,14.61763986,.00062406,98.3931,106.6958,123.4432,236.7366,0,U,35933,999,89364,.80630624E-4,.353E-5,0
ITUPSAT1,2009-051E,2026-07-18T04:55:01.324416,14.60481150,.00082682,98.4013,106.3592,134.7266,225.4608,0,U,35935,999,89326,.78213257E-4,.331E-5,0
XIWANG-1 (HOPE-1),2009-072B,2026-07-18T06:02:11.404032,13.16438422,.00076168,100.4043,152.5903,158.0286,202.1155,0,U,36122,999,79709,-.63674884E-3,-.288E-5,0
O/OREOS (USA 219),2010-062C,2026-07-17T20:48:25.802784,14.93857336,.00141431,71.9699,10.8352,359.8966,0.2199,0,U,37224,999,12122,.99550262E-4,.995E-5,0
JUGNU,2011-058B,2026-07-18T01:55:11.864352,14.13783916,.00186205,19.9598,120.7356,58.2060,59.5664,0,U,37839,999,76340,.40697784E-4,.345E-5,0
SRMSAT,2011-058D,2026-07-18T07:57:05.858784,14.11581459,.00116742,19.9705,230.9631,185.6722,272.4800,0,U,37841,999,76222,.31597989E-4,.323E-5,0
STRAND-1,2013-009E,2026-07-18T05:54:47.539584,14.37179871,.00095546,98.3937,18.7186,132.8363,227.3628,0,U,39090,999,70152,.50761266E-4,.108E-5,0
ZACUBE-1 (TSHEPISOSAT),2013-066B,2026-07-17T20:48:51.576768,15.01335799,.00440515,97.8005,161.3542,146.6146,213.7870,0,U,39417,999,68533,.10037859E-3,.1255E-4,0
GOMX-1,2013-066Q,2026-07-18T05:38:42.257184,14.69546250,.01279711,97.6462,37.7382,338.4264,21.1578,0,U,39430,999,67447,.90350177E-4,.555E-5,0
